NORAD_CAT_ID,OBJECT_NAME,OBJECT_TYPE,EPOCH,MEAN_MOTION,ECCENTRICITY,INCLINATION,RA_OF_ASC_NODE,ARG_OF_PERICENTER,MEAN_ANOMALY,BSTAR,MEAN_MOTION_DOT,MEAN_MOTION_DDOT,TLE_LINE0,TLE_LINE1,TLE_LINE2,SEMIMAJOR_AXIS,PERIOD,APOGEE,PERIGEE,DECAYED
51882.0,STARLINK-3570,PAYLOAD,2024-05-30 02:19:01,15.08835631,0.0001271,53.2182,30.7769,115.1409,244.9715,2.8108e-05,1.59e-06,0.0,0 STARLINK-3570,1 51882U 22022AG  24151.09654761  .00000159  00000-0  28108-4 0  9991,2 51882  53.2182  30.7769 0001271 115.1409 244.9715 15.08835631125382,6917.894,95.438,540.638,538.879,0.0
51882.0,STARLINK-3570,PAYLOAD,2024-05-30 21:23:39,15.08840394,0.0001231,53.2183,27.2087,114.0567,246.0554,4.9681e-05,5.03e-06,0.0,0 STARLINK-3570,1 51882U 22022AG  24151.89142539  .00000503  00000-0  49681-4 0  9996,2 51882  53.2183  27.2087 0001231 114.0567 246.0554 15.08840394125506,6917.879,95.438,540.596,538.893,0.0
51882.0,STARLINK-3570,PAYLOAD,2024-05-31 14:52:53,15.08841212,0.0001132,53.2182,23.9384,109.9673,250.1441,8.8867e-05,1.127e-05,0.0,0 STARLINK-3570,1 51882U 22022AG  24152.62006404  .00001127  00000-0  88867-4 0  9990,2 51882  53.2182  23.9384 0001132 109.9673 250.1441 15.08841212125612,6917.877,95.437,540.525,538.959,0.0
51882.0,STARLINK-3570,PAYLOAD,2024-05-31 21:14:26,15.08835012,0.0001314,53.2194,22.7498,86.8713,273.2429,-4.1696e-06,-3.54e-06,0.0,0 STARLINK-3570,1 51882U 22022AG  24152.88503173 -.00000354  00000-0 -41696-5 0  9996,2 51882  53.2194  22.7498 0001314  86.8713 273.2429 15.08835012125655,6917.896,95.438,540.67,538.852,0.0
51882.0,STARLINK-3570,PAYLOAD,2024-05-31 22:49:49,15.08835857,0.0001217,53.2183,22.4519,84.9816,275.1315,2.7619e-05,1.52e-06,0.0,0 STARLINK-3570,1 51882U 22022AG  24152.95127027  .00000152  00000-0  27619-4 0  9996,2 51882  53.2183  22.4519 0001217  84.9816 275.1315 15.08835857125662,6917.893,95.438,540.6,538.916,0.0
51882.0,STARLINK-3570,PAYLOAD,2024-06-01 08:22:07,15.08847359,0.000131,53.219,20.6669,74.8454,285.2683,8.7895e-05,1.111e-05,0.0,0 STARLINK-3570,1 51882U 22022AG  24153.34870120  .00001111  00000-0  87895-4 0  9997,2 51882  53.2190  20.6669 0001310  74.8454 285.2683 15.08847359125723,6917.858,95.437,540.629,538.817,0.0
51882.0,STARLINK-3570,PAYLOAD,2024-06-01 14:43:40,15.08838696,0.0001554,53.2188,19.4825,84.8012,275.3157,4.4025e-05,4.13e-06,0.0,0 STARLINK-3570,1 51882U 22022AG  24153.61366889  .00000413  00000-0  44025-4 0  9991,2 51882  53.2188  19.4825 0001554  84.8012 275.3157 15.08838696125765,6917.884,95.438,540.824,538.674,0.0
51882.0,STARLINK-3570,PAYLOAD,2024-06-01 21:05:13,15.08838886,0.0001089,53.217,18.2899,64.2911,295.8193,-8.4131e-05,-1.626e-05,0.0,0 STARLINK-3570,1 51882U 22022AG  24153.87863344 -.00001626  00000-0 -84131-4 0  9998,2 51882  53.2170  18.2899 0001089  64.2911 295.8193 15.08838886125800,6917.884,95.438,540.502,538.995,0.0
51882.0,STARLINK-3570,PAYLOAD,2024-06-02 08:12:55,15.08847069,0.0001212,53.2189,16.2086,80.7159,279.397,1.7587e-05,-8e-08,0.0,0 STARLINK-3570,1 51882U 22022AG  24154.34230484 -.00000008  00000-0  17587-4 0  9997,2 51882  53.2189  16.2086 0001212  80.7159 279.3970 15.08847069125871,6917.859,95.437,540.562,538.885,0.0
51882.0,STARLINK-3570,PAYLOAD,2024-06-02 20:56:00,15.08835058,0.0001444,53.2192,13.8306,82.8204,277.2952,4.6693e-05,4.55e-06,0.0,0 STARLINK-3570,1 51882U 22022AG  24154.87223333  .00000455  00000-0  46693-4 0  9995,2 51882  53.2192  13.8306 0001444  82.8204 277.2952 15.08835058125955,6917.895,95.438,540.759,538.762,0.0
51882.0,STARLINK-3570,PAYLOAD,2024-06-03 20:46:47,15.08834034,8.97e-05,53.2198,9.3676,88.6467,271.4628,0.0002201,3.216e-05,0.0,0 STARLINK-3570,1 51882U 22022AG  24155.86583088  .00003216  00000-0  22010-3 0  9995,2 51882  53.2198   9.3676 0000897  88.6467 271.4628 15.08834034126104,6917.899,95.438,540.384,539.143,0.0
51882.0,STARLINK-3570,PAYLOAD,2024-06-03 23:57:33,15.08842836,0.0001326,53.219,8.7722,90.25,269.8644,8.9761e-05,1.141e-05,0.0,0 STARLINK-3570,1 51882U 22022AG  24155.99830878  .00001141  00000-0  89761-4 0  9993,2 51882  53.2190   8.7722 0001326  90.2500 269.8644 15.08842836126126,6917.872,95.437,540.654,538.819,0.0
51882.0,STARLINK-3570,PAYLOAD,2024-06-04 20:37:34,15.08843071,0.0001256,53.2142,4.9078,81.1576,278.9558,0.00011777,1.587e-05,0.0,0 STARLINK-3570,1 51882U 22022AG  24156.85942745  .00001587  00000-0  11777-3 0  9991,2 51882  53.2142   4.9078 0001256  81.1576 278.9558 15.08843071126250,6917.871,95.437,540.605,538.867,0.0
51882.0,STARLINK-3570,PAYLOAD,2024-06-05 14:06:48,15.08842934,0.0001271,53.2194,1.6369,80.8911,279.2225,4.3158e-05,3.99e-06,0.0,0 STARLINK-3570,1 51882U 22022AG  24157.58806706  .00000399  00000-0  43158-4 0  9997,2 51882  53.2194   1.6369 0001271  80.8911 279.2225 15.08842934126364,6917.871,95.437,540.616,538.857,0.0
51882.0,STARLINK-3570,PAYLOAD,2024-06-05 22:03:44,15.08855253,4.42e-05,53.2178,0.1501,3.0133,357.0862,-0.00014622,-2.615e-05,0.0,0 STARLINK-3570,1 51882U 22022AG  24157.91926737 -.00002615  00000-0 -14622-3 0  9999,2 51882  53.2178   0.1501 0000442   3.0133 357.0862 15.08855253126416,6917.834,95.437,540.005,539.393,0.0
51882.0,STARLINK-3570,PAYLOAD,2024-06-06 06:00:39,15.08853026,4.79e-05,53.2143,358.6601,15.5893,344.5114,2.5282e-05,1.15e-06,0.0,0 STARLINK-3570,1 51882U 22022AG  24158.25046129  .00000115  00000-0  25282-4 0  9991,2 51882  53.2143 358.6601 0000479  15.5893 344.5114 15.08853026126463,6917.841,95.437,540.037,539.374,0.0
51882.0,STARLINK-3570,PAYLOAD,2024-06-06 23:29:56,15.08832634,9.65e-05,53.2173,355.3915,59.3494,300.7593,2.6358e-05,1.32e-06,0.0,0 STARLINK-3570,1 51882U 22022AG  24158.97912060  .00000132  00000-0  26358-4 0  9990,2 51882  53.2173 355.3915 0000965  59.3494 300.7593 15.08832634126570,6917.903,95.438,540.435,539.1,0.0
51882.0,STARLINK-3570,PAYLOAD,2024-06-07 21:45:20,15.08833595,0.0003674,53.2203,351.2312,79.9541,280.1865,0.00011951,1.613e-05,0.0,0 STARLINK-3570,1 51882U 22022AG  24159.90648952  .00001613  00000-0  11951-3 0  9997,2 51882  53.2203 351.2312 0003674  79.9541 280.1865 15.08833595126717,6917.9,95.438,542.307,537.223,0.0
51882.0,STARLINK-3570,PAYLOAD,2024-06-08 14:00:01,15.08841661,0.0001118,53.2165,348.1906,96.0959,342.7078,0.0014376,0.00022666,0.0,0 STARLINK-3570,1 51882U 22022AG  24160.58335648  .00022666  00000-0  14376-2 0  9992,2 51882  53.2165 348.1906 0001118  96.0959 342.7078 15.08841661  5857,6917.875,95.437,540.514,538.967,0.0
51882.0,STARLINK-3570,PAYLOAD,2024-06-08 16:00:00,15.08856001,0.0001129,53.2166,347.817,92.6885,78.9494,-0.00029127,-4.922e-05,0.0,0 STARLINK-3570,1 51882U 22022AG  24160.66667824 -.00004922  00000-0 -29127-3 0  9993,2 51882  53.2166 347.8170 0001129  92.6885  78.9494 15.08856001126824,6917.831,95.437,540.478,538.915,0.0
51882.0,STARLINK-3570,PAYLOAD,2024-06-09 13:29:59,15.08828571,0.0002889,53.2161,343.7945,82.5626,277.5694,4.0197e-06,-2.25e-06,0.0,0 STARLINK-3570,1 51882U 22022AG  24161.56249233 -.00000225  00000-0  40197-5 0  9996,2 51882  53.2161 343.7945 0002889  82.5626 277.5694 15.08828571126964,6917.915,95.438,541.779,537.782,0.0
51882.0,STARLINK-3570,PAYLOAD,2024-06-09 19:51:31,15.08844144,0.0002741,53.2189,342.6054,83.8905,276.24,2.2586e-05,7.1e-07,0.0,0 STARLINK-3570,1 51882U 22022AG  24161.82744489  .00000071  00000-0  22586-4 0  9997,2 51882  53.2189 342.6054 0002741  83.8905 276.2400 15.08844144127005,6917.868,95.437,541.629,537.837,0.0
51882.0,STARLINK-3570,PAYLOAD,2024-06-10 05:23:49,15.08849252,0.0001614,53.219,340.8214,82.0507,278.0669,4.9266e-05,4.96e-06,0.0,0 STARLINK-3570,1 51882U 22022AG  24162.22487314  .00000496  00000-0  49266-4 0  9998,2 51882  53.2190 340.8214 0001614  82.0507 278.0669 15.08849252127060,6917.852,95.437,540.834,538.601,0.0
51882.0,STARLINK-3570,PAYLOAD,2024-06-10 18:06:55,15.08837089,0.0002216,53.2151,338.4404,92.2042,267.9204,4.4945e-05,4.27e-06,0.0,0 STARLINK-3570,1 51882U 22022AG  24162.75480446  .00000427  00000-0  44945-4 0  9998,2 51882  53.2151 338.4404 0002216  92.2042 267.9204 15.08837089127143,6917.889,95.438,541.287,538.221,0.0
51882.0,STARLINK-3570,PAYLOAD,2024-06-11 05:14:35,15.08840624,9.82e-05,53.2169,336.3607,85.7104,274.4001,0.0002223,3.252e-05,0.0,0 STARLINK-3570,1 51882U 22022AG  24163.21847192  .00003252  00000-0  22230-3 0  9996,2 51882  53.2169 336.3607 0000982  85.7104 274.4001 15.08840624127213,6917.878,95.438,540.423,539.064,0.0
51882.0,STARLINK-3570,PAYLOAD,2024-06-11 21:08:28,15.08818998,0.000191,53.2201,333.3857,98.7695,261.3513,0.00041951,6.391e-05,0.0,0 STARLINK-3570,1 51882U 22022AG  24163.88088695  .00006391  00000-0  41951-3 0  9992,2 51882  53.2201 333.3857 0001910  98.7695 261.3513 15.08818998127318,6917.945,95.439,541.131,538.488,0.0
51882.0,STARLINK-3570,PAYLOAD,2024-06-12 20:59:15,15.08831862,0.0001327,53.2192,328.9261,95.5459,264.5684,2.0238e-05,3.4e-07,0.0,0 STARLINK-3570,1 51882U 22022AG  24164.87448773  .00000034  00000-0  20238-4 0  9993,2 51882  53.2192 328.9261 0001327  95.5459 264.5684 15.08831862127466,6917.905,95.438,540.688,538.852,0.0
51882.0,STARLINK-3570,PAYLOAD,2024-06-13 11:17:43,15.08831766,0.0001381,53.2186,326.2483,90.0039,270.1111,0.00012204,1.654e-05,0.0,0 STARLINK-3570,1 51882U 22022AG  24165.47064622  .00001654  00000-0  12204-3 0  9999,2 51882  53.2186 326.2483 0001381  90.0039 270.1111 15.08831766127551,6917.906,95.438,540.726,538.815,0.0
51882.0,STARLINK-3570,PAYLOAD,2024-06-13 14:28:28,15.08884334,0.0001594,53.2189,325.6549,76.4677,283.6493,-0.00061636,-0.00010096,0.0,0 STARLINK-3570,1 51882U 22022AG  24165.60311038 -.00010096  00000-0 -61636-3 0  9995,2 51882  53.2189 325.6549 0001594  76.4677 283.6493 15.08884334127575,6917.745,95.435,540.713,538.507,0.0
51882.0,STARLINK-3570,PAYLOAD,2024-06-13 16:03:53,15.08826281,0.0001211,53.2187,325.3573,89.0765,271.0366,0.00021395,3.118e-05,0.0,0 STARLINK-3570,1 51882U 22022AG  24165.66936791  .00003118  00000-0  21395-3 0  9993,2 51882  53.2187 325.3573 0001211  89.0765 271.0366 15.08826281127589,6917.922,95.438,540.625,538.95,0.0
